{"fetched_at":"2026-07-14T17:40:59.933Z","source":"https://celestrak.org/NORAD/elements/gp.php?NAME=PLEIADES&FORMAT=JSON","constellation":"pleiades","records":[{"OBJECT_NAME":"PLEIADES 1A","OBJECT_ID":"2011-076F","EPOCH":"2026-07-14T05:22:49.048320","CLASSIFICATION_TYPE":"U","MEAN_MOTION":14.58546338,"ECCENTRICITY":0.0001677,"INCLINATION":98.1976,"RA_OF_ASC_NODE":269.9623,"ARG_OF_PERICENTER":80.9118,"MEAN_ANOMALY":344.3797,"EPHEMERIS_TYPE":0,"NORAD_CAT_ID":38012,"ELEMENT_SET_NO":999,"REV_AT_EPOCH":77593,"BSTAR":0.00002449,"MEAN_MOTION_DOT":6.8e-7,"MEAN_MOTION_DDOT":0},{"OBJECT_NAME":"PLEIADES 1B","OBJECT_ID":"2012-068A","EPOCH":"2026-07-14T04:15:03.148128","CLASSIFICATION_TYPE":"U","MEAN_MOTION":14.58533652,"ECCENTRICITY":0.0001588,"INCLINATION":98.1948,"RA_OF_ASC_NODE":269.8558,"ARG_OF_PERICENTER":79.9014,"MEAN_ANOMALY":280.2364,"EPHEMERIS_TYPE":0,"NORAD_CAT_ID":39019,"ELEMENT_SET_NO":999,"REV_AT_EPOCH":72478,"BSTAR":0.0000093953,"MEAN_MOTION_DOT":-2e-8,"MEAN_MOTION_DDOT":0}]}
